STARLINK-34078          
1 64012U 25101U   26161.76879559  .00020443  00000+0  74984-3 0  9991
2 64012  42.9959 192.0191 0002277 282.1845  77.8752 15.27601296 61297
STARLINK-34182          
1 64013U 25101V   26161.35398054  .00012955  00000+0  47917-3 0  9998
2 64013  42.9990 191.4673 0002066 265.5204  94.5412 15.27598566 61262
STARLINK-34192          
1 64014U 25101W   26161.35992571  .00022734  00000+0  83273-3 0  9994
2 64014  43.0004 194.9779 0001889 270.5717  89.4918 15.27594827 61229
STARLINK-34093          
1 64015U 25101X   26161.77523927  .00021537  00000+0  78932-3 0  9992
2 64015  43.0124 192.0728 0000140 241.1283 118.9555 15.27602913 61295
STARLINK-34016          
1 64016U 25101Y   26162.22777452  .00028099  00000+0  10256-2 0  9992
2 64016  43.0022 189.4384 0003527 228.9506 131.1042 15.27613906 61364
STARLINK-34161          
1 64017U 25101Z   26161.77907572  .00017467  00000+0  64245-3 0  9995
2 64017  42.9900 192.0937 0002134 280.2283  79.8328 15.27594922 61291
STARLINK-34162          
1 64018U 25101AA  26161.79192250  .00012930  00000+0  47811-3 0  9997
2 64018  43.0004 192.1952 0004054 262.1289  97.9102 15.27607341 61296
STARLINK-34155          
1 64019U 25101AB  26161.79963888  .00020465  00000+0  75080-3 0  9992
2 64019  43.0003 192.2564 0002278 268.6161  91.4430 15.27593455 61295
STARLINK-34141          
1 64020U 25101AC  26161.79578279  .00016991  00000+0  62532-3 0  9997
2 64020  43.0008 192.2252 0001912 269.0052  91.0580 15.27591686 61290
STARLINK-34062          
1 64021U 25101AD  26161.77392718  .00020511  00000+0  75242-3 0  9993
2 64021  43.0026 192.0590 0003329 277.3590  82.6883 15.27593549 61299
STARLINK-34051          
1 64022U 25102A   26162.23024359  .00004786  00000+0  40856-3 0  9999
2 64022  70.0000 238.6059 0003660 270.8336  89.2404 14.98333171 59966
STARLINK-34087          
1 64023U 25102B   26162.24676753  .00000686  00000+0  65258-4 0  9991
2 64023  70.0008 238.6628 0003464 268.4647  91.6116 14.98334741 59979
STARLINK-34184          
1 64024U 25102C   26162.21337071 -.00003381  00000+0 -27566-3 0  9992
2 64024  70.0005 238.5418 0003270 272.1411  87.9374 14.98332639 59854
STARLINK-34088          
1 64025U 25102D   26161.65444159  .00002828  00000+0  24463-3 0  9992
2 64025  70.0008 240.2023 0003571 268.0966  91.9784 14.98340236 59888
STARLINK-33992          
1 64026U 25102E   26161.92966555  .00001284  00000+0  11533-3 0  9991
2 64026  70.0007 239.5629 0003313 269.2748  90.8032 14.98337149 60005
STARLINK-33967          
1 64027U 25102F   26162.23007235  .00001641  00000+0  14525-3 0  9999
2 64027  70.0003 238.6007 0003356 268.0443  92.0332 14.98334241 59902
STARLINK-33953          
1 64028U 25102G   26161.60001264  .00001498  00000+0  13330-3 0  9999
2 64028  70.0005 240.0121 0003522 268.2044  91.8712 14.98335934 59979
STARLINK-33790          
1 64029U 25102H   26162.24275851  .00001575  00000+0  13974-3 0  9996
2 64029  70.0007 238.6424 0003501 267.0642  93.0117 14.98334917 60019
STARLINK-34030          
1 64030U 25102J   26161.92131673  .00000541  00000+0  53130-4 0  9996
2 64030  70.0011 239.5338 0003520 267.8876  92.1880 14.98333606 59927
STARLINK-34024          
1 64031U 25102K   26162.23842814  .00003727  00000+0  31983-3 0  9998
2 64031  70.0008 238.6321 0003410 263.7961  96.2809 14.98349772 59909
STARLINK-34019          
1 64032U 25102L   26161.60836153  .00002403  00000+0  20908-3 0  9993
2 64032  70.0004 240.0408 0003482 270.3277  89.7483 14.98338397 59885
STARLINK-33860          
1 64033U 25102M   26162.22173182  .00003653  00000+0  31362-3 0  9993
2 64033  70.0003 238.5703 0003163 268.7708  91.3089 14.98348218 59975
STARLINK-33946          
1 64034U 25102N   26162.22606453  .00001817  00000+0  16000-3 0  9998
2 64034  70.0004 238.5888 0003398 269.0517  91.0252 14.98336911 60016
STARLINK-34046          
1 64035U 25102P   26161.92564870  .00000687  00000+0  65402-4 0  9996
2 64035  70.0006 239.4274 0003467 269.9079  90.1683 14.98333407 59694
STARLINK-34085          
1 64036U 25102Q   26162.24691649  .00007435  00000+0  62973-3 0  9995
2 64036  70.0008 238.6559 0003832 270.5502  89.5218 14.98359143 59960
STARLINK-34008          
1 64037U 25102R   26162.23441192  .00001905  00000+0  16737-3 0  9994
2 64037  70.0005 238.6105 0003421 269.6347  90.4420 14.98336184 59972
STARLINK-34079          
1 64038U 25102S   26161.93798671  .00001343  00000+0  12031-3 0  9997
2 64038  70.0007 239.1835 0003693 269.4598  90.6138 14.98336085 60024
STARLINK-34089          
1 64039U 25102T   26161.92983029  .00001705  00000+0  15063-3 0  9990
2 64039  70.0005 239.5565 0003562 269.7631  90.3120 14.98337705 59917
STARLINK-34117          
1 64040U 25102U   26162.25110655  .00000315  00000+0  34176-4 0  9999
2 64040  70.0008 238.6704 0003374 270.2296  89.8477 14.98333722 59904
STARLINK-34111          
1 64041U 25102V   26162.23858514 -.00000315  00000+0 -18616-4 0  9994
2 64041  70.0011 238.6264 0003115 269.7603  90.3199 14.98337685 59740
