OBJECT_NAME,OBJECT_ID,EPOCH,MEAN_MOTION,ECCENTRICITY,INCLINATION,RA_OF_ASC_NODE,ARG_OF_PERICENTER,MEAN_ANOMALY,EPHEMERIS_TYPE,CLASSIFICATION_TYPE,NORAD_CAT_ID,ELEMENT_SET_NO,REV_AT_EPOCH,BSTAR,MEAN_MOTION_DOT,MEAN_MOTION_DDOT
STARLINK-34078,2025-101U,2026-06-10T18:27:03.938976,15.27601296,.00022774,42.9959,192.0191,282.1845,77.8752,0,U,64012,999,6129,.74984401E-3,.20443E-3,0
STARLINK-34182,2025-101V,2026-06-10T08:29:43.918656,15.27598566,.00020665,42.9990,191.4673,265.5204,94.5412,0,U,64013,999,6126,.47917328E-3,.12955E-3,0
STARLINK-34192,2025-101W,2026-06-10T08:38:17.581344,15.27594827,.00018891,43.0004,194.9779,270.5717,89.4918,0,U,64014,999,6122,.83273475E-3,.22734E-3,0
STARLINK-34093,2025-101X,2026-06-10T18:36:20.672928,15.27602913,.00001404,43.0124,192.0728,241.1283,118.9555,0,U,64015,999,6129,.78932408E-3,.21537E-3,0
STARLINK-34016,2025-101Y,2026-06-11T05:27:59.718528,15.27613906,.00035278,43.0022,189.4384,228.9506,131.1042,0,U,64016,999,6136,.10255523E-2,.28099E-3,0
STARLINK-34161,2025-101Z,2026-06-10T18:41:52.142208,15.27594922,.0002134,42.9900,192.0937,280.2283,79.8328,0,U,64017,999,6129,.64245057E-3,.17467E-3,0
STARLINK-34162,2025-101AA,2026-06-10T19:00:22.104000,15.27607341,.00040544,43.0004,192.1952,262.1289,97.9102,0,U,64018,999,6129,.47810641E-3,.1293E-3,0
STARLINK-34155,2025-101AB,2026-06-10T19:11:28.799232,15.27593455,.00022784,43.0003,192.2564,268.6161,91.4430,0,U,64019,999,6129,.75080102E-3,.20465E-3,0
STARLINK-34141,2025-101AC,2026-06-10T19:05:55.633056,15.27591686,.00019125,43.0008,192.2252,269.0052,91.0580,0,U,64020,999,6129,.62532015E-3,.16991E-3,0
STARLINK-34062,2025-101AD,2026-06-10T18:34:27.308352,15.27593549,.00033293,43.0026,192.0590,277.3590,82.6883,0,U,64021,999,6129,.75241879E-3,.20511E-3,0
STARLINK-34051,2025-102A,2026-06-11T05:31:33.046176,14.98333171,.000366,70.0000,238.6059,270.8336,89.2404,0,U,64022,999,5996,.40855691E-3,.4786E-4,0
STARLINK-34087,2025-102B,2026-06-11T05:55:20.714592,14.98334741,.00034643,70.0008,238.6628,268.4647,91.6116,0,U,64023,999,5997,.65257898E-4,.686E-5,0
STARLINK-34184,2025-102C,2026-06-11T05:07:15.229344,14.98332639,.000327,70.0005,238.5418,272.1411,87.9374,0,U,64024,999,5985,-.27565901E-3,-.3381E-4,0
STARLINK-34088,2025-102D,2026-06-10T15:42:23.753376,14.98340236,.00035716,70.0008,240.2023,268.0966,91.9784,0,U,64025,999,5988,.24462959E-3,.2828E-4,0
STARLINK-33992,2025-102E,2026-06-10T22:18:43.103520,14.98337149,.00033137,70.0007,239.5629,269.2748,90.8032,0,U,64026,999,6000,.11532657E-3,.1284E-4,0
STARLINK-33967,2025-102F,2026-06-11T05:31:18.251040,14.98334241,.00033567,70.0003,238.6007,268.0443,92.0332,0,U,64027,999,5990,.14525156E-3,.1641E-4,0
STARLINK-33953,2025-102G,2026-06-10T14:24:01.092096,14.98335934,.00035228,70.0005,240.0121,268.2044,91.8712,0,U,64028,999,5997,.1332998E-3,.1498E-4,0
STARLINK-33790,2025-102H,2026-06-11T05:49:34.335264,14.98334917,.0003501,70.0007,238.6424,267.0642,93.0117,0,U,64029,999,6001,.13974467E-3,.1575E-4,0
STARLINK-34030,2025-102J,2026-06-10T22:06:41.765472,14.98333606,.00035203,70.0011,239.5338,267.8876,92.1880,0,U,64030,999,5992,.53130204E-4,.541E-5,0
STARLINK-34024,2025-102K,2026-06-11T05:43:20.191296,14.98349772,.000341,70.0008,238.6321,263.7961,96.2809,0,U,64031,999,5990,.31983448E-3,.3727E-4,0
STARLINK-34019,2025-102L,2026-06-10T14:36:02.436192,14.98338397,.00034826,70.0004,240.0408,270.3277,89.7483,0,U,64032,999,5988,.20907899E-3,.2403E-4,0
STARLINK-33860,2025-102M,2026-06-11T05:19:17.629248,14.98348218,.00031637,70.0003,238.5703,268.7708,91.3089,0,U,64033,999,5997,.31362426E-3,.3653E-4,0
STARLINK-33946,2025-102N,2026-06-11T05:25:31.975392,14.98336911,.00033981,70.0004,238.5888,269.0517,91.0252,0,U,64034,999,6001,.15999514E-3,.1817E-4,0
STARLINK-34046,2025-102P,2026-06-10T22:12:56.047680,14.98333407,.00034675,70.0006,239.4274,269.9079,90.1683,0,U,64035,999,5969,.65402049E-4,.687E-5,0
STARLINK-34085,2025-102Q,2026-06-11T05:55:33.584736,14.98359143,.00038328,70.0008,238.6559,270.5502,89.5218,0,U,64036,999,5996,.62972833E-3,.7435E-4,0
STARLINK-34008,2025-102R,2026-06-11T05:37:33.189888,14.98336184,.00034211,70.0005,238.6105,269.6347,90.4420,0,U,64037,999,5997,.16736756E-3,.1905E-4,0
STARLINK-34079,2025-102S,2026-06-10T22:30:42.051744,14.98336085,.00036939,70.0007,239.1835,269.4598,90.6138,0,U,64038,999,6002,.12030728E-3,.1343E-4,0
STARLINK-34089,2025-102T,2026-06-10T22:18:57.337056,14.98337705,.00035624,70.0005,239.5565,269.7631,90.3120,0,U,64039,999,5991,.15062727E-3,.1705E-4,0
STARLINK-34117,2025-102U,2026-06-11T06:01:35.605920,14.98333722,.00033742,70.0008,238.6704,270.2296,89.8477,0,U,64040,999,5990,.34176144E-4,.315E-5,0
STARLINK-34111,2025-102V,2026-06-11T05:43:33.756096,14.98337685,.00031153,70.0011,238.6264,269.7603,90.3199,0,U,64041,999,5974,-.18616004E-4,-.315E-5,0
